OBJECT_NAME,OBJECT_ID,EPOCH,MEAN_MOTION,ECCENTRICITY,INCLINATION,RA_OF_ASC_NODE,ARG_OF_PERICENTER,MEAN_ANOMALY,EPHEMERIS_TYPE,CLASSIFICATION_TYPE,NORAD_CAT_ID,ELEMENT_SET_NO,REV_AT_EPOCH,BSTAR,MEAN_MOTION_DOT,MEAN_MOTION_DDOT
CUBEBUG-2 (LO-74),2013-066AA,2026-07-22T07:04:20.987040,14.94001241,.00554484,97.8917,152.4311,271.2491,88.2376,0,U,39440,999,68223,.24278153E-3,.2604E-4,0
FUNCUBE-1 (AO-73),2013-066AE,2026-07-21T20:29:21.960096,15.09885034,.00381133,97.8301,175.0373,86.0733,274.4851,0,U,39444,999,68489,.47205108E-3,.7711E-4,0
UWE-3,2013-066AG,2026-07-21T20:04:24.811392,14.97233886,.00477658,97.8727,159.1532,201.8178,158.1010,0,U,39446,999,68276,.26824669E-3,.3114E-4,0
UNISAT-6,2014-033C,2026-07-22T05:27:56.502720,14.88387173,.00437069,97.7918,355.3341,314.1378,45.6247,0,U,40012,999,65137,.19328809E-3,.1765E-4,0
DUCHIFAT-1,2014-033M,2026-07-21T17:28:25.843296,15.72417512,.00036258,98.0415,266.9561,228.7731,131.3218,0,U,40021,999,66116,.12189574E-2,.164629E-2,0
QB50P1,2014-033R,2026-07-22T06:31:54.462432,15.18741121,.00105567,98.0974,216.8915,104.1834,256.0572,0,U,40025,999,65835,.40318962E-3,.8312E-4,0
LILACSAT-2,2015-049K,2026-07-22T06:45:57.741120,15.52543144,.00086295,97.4630,241.4779,120.8511,239.3591,0,U,40908,999,60119,.33975689E-3,.20795E-3,0
FOX-1A (AO-85),2015-058D,2026-07-22T07:07:15.458880,14.91122011,.01329692,64.7739,169.8597,43.1199,318.0235,0,U,40967,999,11880,.30485533E-3,.3414E-4,0
CAS-2T & KS-1Q,2016-066G,2026-07-22T03:29:52.438848,14.44778706,.03418663,98.3808,278.4820,23.6956,337.9565,0,U,41847,999,50984,.91966288E-4,.594E-5,0
RADFXSAT (FOX-1B),2017-073E,2026-07-22T03:05:57.535296,15.13124846,.01485812,97.4661,69.6322,207.3582,151.9771,0,U,43017,999,47067,.31369242E-3,.7226E-4,0
DIWATA-2B,2018-084H,2026-07-22T05:54:10.303776,15.00578707,.00123894,98.1224,40.9909,62.5735,297.6746,0,U,43678,999,42147,.94637331E-4,.113E-4,0
ES'HAIL 2,2018-090A,2026-07-22T06:18:40.322880,1.00273507,.00024856,0.0093,13.6727,141.0175,265.7889,0,U,43700,999,2802,0,.147E-5,0
FOX-1CLIFF (AO-95),2018-099N,2026-07-22T03:13:59.426112,15.27374761,.00078619,97.4363,263.2646,212.3554,147.7204,0,U,43770,999,41855,.45300117E-3,.12085E-3,0
ITASAT,2018-099AE,2026-07-22T03:02:44.191104,15.19439192,.00113209,97.4010,253.9464,223.4985,136.5358,0,U,43786,999,41821,.29324339E-3,.6157E-4,0
JY1SAT (JO-97),2018-099AX,2026-07-22T02:53:28.362624,15.34679295,.00073228,97.4108,266.0975,137.6573,222.5236,0,U,43803,999,41898,.58249391E-3,.1954E-3,0
UWE-4,2018-111E,2026-07-21T18:02:57.094080,15.48106751,.00072436,97.5823,132.7889,170.7550,189.3835,0,U,43880,999,41612,.67941861E-3,.35687E-3,0
TIANYAN 01,2019-093C,2026-07-22T05:57:58.013568,14.86567503,.00128961,97.7512,274.6236,338.1348,21.9316,0,U,44881,999,35662,.48002937E-4,.372E-5,0
RS-44 & BREEZE-KM R/B,2019-096E,2026-07-21T19:05:27.864096,12.79748876,.02183968,82.5240,316.7099,63.6323,298.7021,0,U,44909,999,30677,-.7000044E-5,.11E-6,0
SALSAT,2020-068K,2026-07-22T00:05:06.375264,15.30238203,.00099248,97.8867,208.2016,169.3819,190.7631,0,U,46495,999,32068,.25647661E-3,.7429E-4,0
XW-3 (CAS-9),2021-131B,2026-07-22T05:59:38.586624,14.41385978,.00041017,98.4981,295.4505,11.8619,348.2665,0,U,50466,999,24016,.12784382E-3,.37E-5,0
GREENCUBE (IO-117),2022-080E,2026-07-21T06:26:53.364480,6.42583331,.0009377,70.1384,286.3946,282.6707,77.2904,0,U,53109,999,9425,0,-.3E-7,0
UMKA 1 (RS40S),2023-091G,2026-07-22T05:23:20.691456,15.21173875,.00123263,97.5028,261.7914,5.5532,354.5837,0,U,57172,999,16933,.25572396E-3,.564E-4,0
CUBESX-HSE 3 (RS42S),2023-091N,2026-07-22T06:09:52.888032,15.32004264,.00090037,97.5070,269.3038,335.0192,25.0612,0,U,57178,999,16979,.45706649E-3,.14071E-3,0
MONITOR-3 (RS58S),2023-091Q,2026-07-22T07:05:05.546976,15.28465948,.00102569,97.5062,267.0109,343.7140,16.3769,0,U,57180,999,16965,.37941805E-3,.10455E-3,0
MONITOR-4 (RS57S),2023-091S,2026-07-22T06:32:06.345024,15.28552951,.00102739,97.5055,266.9609,344.0585,16.0330,0,U,57182,999,16965,.39161947E-3,.10823E-3,0
MONITOR-2 (RS39S),2023-091U,2026-07-22T06:58:29.771040,15.19197494,.00106706,97.5051,261.3491,359.7951,0.3277,0,U,57184,999,16928,.22091477E-3,.4586E-4,0
SVYATOBOR 1 (RS60S),2023-091X,2026-07-22T06:01:44.529312,15.27142504,.00080254,97.5068,267.2715,338.2806,21.8092,0,U,57187,999,16966,.35978866E-3,.9512E-4,0
VIZARD-METEO (RS38S),2023-091Z,2026-07-22T05:57:57.216096,15.37029018,.00051959,97.5070,273.4594,308.7320,51.3459,0,U,57189,999,17007,.48852654E-3,.17641E-3,0
POLYTECH-UNIVERSE 3 (RS46S),2023-091AB,2026-07-22T05:55:53.873184,15.19410694,.00153948,97.5027,260.8101,14.0853,346.0807,0,U,57191,999,16927,.24052645E-3,.5039E-4,0
UTMN 2 (RS27S),2023-091AP,2026-07-22T06:08:04.283232,15.32818433,.00061417,97.5066,270.9788,321.4456,38.6347,0,U,57203,999,16991,.43448377E-3,.13708E-3,0
